{
  "name": "SATGUS",
  "line1": "1 62713U 25009DJ  25356.48103941  .00008229  00000+0  69426-3 0  9996",
  "line2": "2 62713  97.7198  74.5064 0001874  10.1544 349.9716 14.98397584 51073",
  "fetched_at": "2025-12-23T00:19:38.709575+00:00"
}